SL-8 R/B                
1 11574U 79089B   26106.47671771  .00000137  00000+0  49324-4 0  9992
2 11574  74.0713  21.0943 0016019 187.4949 172.5971 14.42375271441557
SL-14 R/B               
1 11672U 80005B   26106.84780423  .00000361  00000+0  33878-4 0  9993
2 11672  82.5114 271.0270 0016662  40.6619 319.5840 14.90974095482176
SL-8 R/B                
1 12139U 81003B   26106.66162971  .00009410  00000+0  23333-3 0  9991
2 12139  82.9370 254.8636 0257389  46.7025 315.5358 15.12600150320410
SL-3 R/B                
1 12465U 81046B   26106.86392701  .00007729  00000+0  17410-3 0  9998
2 12465  81.2303 243.8634 0018145 245.1705 114.7652 15.42927781444318
SL-3 R/B                
1 12904U 81103B   26106.91343955  .00002645  00000+0  11518-3 0  9998
2 12904  81.1594 168.5876 0013824 153.8174 206.3759 15.21796194979040
SL-3 R/B                
1 13068U 82013B   26106.90684803  .00002523  00000+0  10749-3 0  9990
2 13068  81.1712 115.9608 0023214  53.4154 306.9209 15.22337327410160
SL-3 R/B                
1 13154U 82039B   26106.88723800  .00000964  00000+0  56914-4 0  9994
2 13154  81.1516 171.9065 0027953 195.1401 164.8991 15.10279575387406
SL-3 R/B                
1 13403U 82079B   26106.91869107  .00003097  00000+0  12108-3 0  9996
2 13403  81.1452 147.9268 0024890  39.5780 320.7265 15.25251638383520
SL-14 R/B               
1 13553U 82092B   26106.48863824  .00000266  00000+0  26994-4 0  9993
2 13553  82.5646 106.0321 0020535 171.2918 353.6185 14.86699335334541
SL-3 R/B                
1 13819U 83010B   26106.85848804  .00008002  00000+0  15434-3 0  9993
2 13819  81.1012 315.4052 0015008 274.5205  85.4326 15.47539239363846
SL-3 R/B                
1 14208U 83075B   26106.98649267  .00006982  00000+0  17970-3 0  9995
2 14208  97.6127 113.0416 0023253  92.9383 267.4524 15.39303078336049
COSMOS 1536             
1 14699U 84013A   26106.60281247  .00003815  00000+0  15408-3 0  9997
2 14699  82.5435  70.1378 0015489 142.5523 217.6796 15.24345804278396
SL-14 R/B               
1 14820U 84027B   26106.73829906  .00000272  00000+0  28293-4 0  9993
2 14820  82.5441 209.3318 0017377 202.9423 157.1019 14.86016501253280
SL-8 R/B                
1 15483U 85006B   26106.65721325  .00000127  00000+0  50887-4 0  9997
2 15483  74.0463 191.2857 0017220  96.7509  11.8045 14.37808107159483
SL-12 R/B(2)            
1 15772U 85042D   26106.49148076  .00000049  00000+0  43352-4 0  9998
2 15772  71.1105   7.8648 0033133  65.4156 107.1999 14.21993166119764
SL-14 R/B               
1 15945U 85069B   26106.64412698  .00000262  00000+0  26761-4 0  9992
2 15945  82.5289 349.2537 0020256  68.4382 291.8991 14.86471675178474
SL-16 R/B               
1 16182U 85097B   26106.64494056  .00000165  00000+0  10659-3 0  9995
2 16182  71.0032  60.6425 0008552 213.3013 319.1399 14.16606259 92601
