[{"OBJECT_NAME":"SL-8 R/B","OBJECT_ID":"1979-089B","EPOCH":"2026-04-16T11:26:28.410144","MEAN_MOTION":14.42375271,"ECCENTRICITY":0.0016019,"INCLINATION":74.0713,"RA_OF_ASC_NODE":21.0943,"ARG_OF_PERICENTER":187.4949,"MEAN_ANOMALY":172.5971,"EPHEMERIS_TYPE":0,"CLASSIFICATION_TYPE":"U","NORAD_CAT_ID":11574,"ELEMENT_SET_NO":999,"REV_AT_EPOCH":44155,"BSTAR":4.9323871e-5,"MEAN_MOTION_DOT":1.37e-6,"MEAN_MOTION_DDOT":0},{"OBJECT_NAME":"SL-14 R/B","OBJECT_ID":"1980-005B","EPOCH":"2026-04-16T20:20:50.285472","MEAN_MOTION":14.90974095,"ECCENTRICITY":0.00166622,"INCLINATION":82.5114,"RA_OF_ASC_NODE":271.027,"ARG_OF_PERICENTER":40.6619,"MEAN_ANOMALY":319.584,"EPHEMERIS_TYPE":0,"CLASSIFICATION_TYPE":"U","NORAD_CAT_ID":11672,"ELEMENT_SET_NO":999,"REV_AT_EPOCH":48217,"BSTAR":3.3877636e-5,"MEAN_MOTION_DOT":3.61e-6,"MEAN_MOTION_DDOT":0},{"OBJECT_NAME":"SL-8 R/B","OBJECT_ID":"1981-003B","EPOCH":"2026-04-16T15:52:44.806944","MEAN_MOTION":15.1260015,"ECCENTRICITY":0.02573895,"INCLINATION":82.937,"RA_OF_ASC_NODE":254.8636,"ARG_OF_PERICENTER":46.7025,"MEAN_ANOMALY":315.5358,"EPHEMERIS_TYPE":0,"CLASSIFICATION_TYPE":"U","NORAD_CAT_ID":12139,"ELEMENT_SET_NO":999,"REV_AT_EPOCH":32041,"BSTAR":0.00023332992,"MEAN_MOTION_DOT":9.41e-5,"MEAN_MOTION_DDOT":0},{"OBJECT_NAME":"SL-3 R/B","OBJECT_ID":"1981-046B","EPOCH":"2026-04-16T20:44:03.293664","MEAN_MOTION":15.42927781,"ECCENTRICITY":0.00181452,"INCLINATION":81.2303,"RA_OF_ASC_NODE":243.8634,"ARG_OF_PERICENTER":245.1705,"MEAN_ANOMALY":114.7652,"EPHEMERIS_TYPE":0,"CLASSIFICATION_TYPE":"U","NORAD_CAT_ID":12465,"ELEMENT_SET_NO":999,"REV_AT_EPOCH":44431,"BSTAR":0.00017410483,"MEAN_MOTION_DOT":7.729e-5,"MEAN_MOTION_DDOT":0},{"OBJECT_NAME":"SL-3 R/B","OBJECT_ID":"1981-103B","EPOCH":"2026-04-16T21:55:21.177120","MEAN_MOTION":15.21796194,"ECCENTRICITY":0.00138241,"INCLINATION":81.1594,"RA_OF_ASC_NODE":168.5876,"ARG_OF_PERICENTER":153.8174,"MEAN_ANOMALY":206.3759,"EPHEMERIS_TYPE":0,"CLASSIFICATION_TYPE":"U","NORAD_CAT_ID":12904,"ELEMENT_SET_NO":999,"REV_AT_EPOCH":97904,"BSTAR":0.00011517988,"MEAN_MOTION_DOT":2.645e-5,"MEAN_MOTION_DDOT":0},{"OBJECT_NAME":"SL-3 R/B","OBJECT_ID":"1982-013B","EPOCH":"2026-04-16T21:45:51.669792","MEAN_MOTION":15.22337327,"ECCENTRICITY":0.00232146,"INCLINATION":81.1712,"RA_OF_ASC_NODE":115.9608,"ARG_OF_PERICENTER":53.4154,"MEAN_ANOMALY":306.9209,"EPHEMERIS_TYPE":0,"CLASSIFICATION_TYPE":"U","NORAD_CAT_ID":13068,"ELEMENT_SET_NO":999,"REV_AT_EPOCH":41016,"BSTAR":0.00010749388,"MEAN_MOTION_DOT":2.523e-5,"MEAN_MOTION_DDOT":0},{"OBJECT_NAME":"SL-3 R/B","OBJECT_ID":"1982-039B","EPOCH":"2026-04-16T21:17:37.363200","MEAN_MOTION":15.10279575,"ECCENTRICITY":0.00279536,"INCLINATION":81.1516,"RA_OF_ASC_NODE":171.9065,"ARG_OF_PERICENTER":195.1401,"MEAN_ANOMALY":164.8991,"EPHEMERIS_TYPE":0,"CLASSIFICATION_TYPE":"U","NORAD_CAT_ID":13154,"ELEMENT_SET_NO":999,"REV_AT_EPOCH":38740,"BSTAR":5.6914142e-5,"MEAN_MOTION_DOT":9.64e-6,"MEAN_MOTION_DDOT":0},{"OBJECT_NAME":"SL-3 R/B","OBJECT_ID":"1982-079B","EPOCH":"2026-04-16T22:02:54.908448","MEAN_MOTION":15.25251638,"ECCENTRICITY":0.002489,"INCLINATION":81.1452,"RA_OF_ASC_NODE":147.9268,"ARG_OF_PERICENTER":39.578,"MEAN_ANOMALY":320.7265,"EPHEMERIS_TYPE":0,"CLASSIFICATION_TYPE":"U","NORAD_CAT_ID":13403,"ELEMENT_SET_NO":999,"REV_AT_EPOCH":38352,"BSTAR":0.00012108131,"MEAN_MOTION_DOT":3.097e-5,"MEAN_MOTION_DDOT":0},{"OBJECT_NAME":"SL-14 R/B","OBJECT_ID":"1982-092B","EPOCH":"2026-04-16T11:43:38.343936","MEAN_MOTION":14.86699335,"ECCENTRICITY":0.00205353,"INCLINATION":82.5646,"RA_OF_ASC_NODE":106.0321,"ARG_OF_PERICENTER":171.2918,"MEAN_ANOMALY":353.6185,"EPHEMERIS_TYPE":0,"CLASSIFICATION_TYPE":"U","NORAD_CAT_ID":13553,"ELEMENT_SET_NO":999,"REV_AT_EPOCH":33454,"BSTAR":2.6993966e-5,"MEAN_MOTION_DOT":2.66e-6,"MEAN_MOTION_DDOT":0},{"OBJECT_NAME":"SL-3 R/B","OBJECT_ID":"1983-010B","EPOCH":"2026-04-16T20:36:13.366656","MEAN_MOTION":15.47539239,"ECCENTRICITY":0.00150089,"INCLINATION":81.1012,"RA_OF_ASC_NODE":315.4052,"ARG_OF_PERICENTER":274.5205,"MEAN_ANOMALY":85.4326,"EPHEMERIS_TYPE":0,"CLASSIFICATION_TYPE":"U","NORAD_CAT_ID":13819,"ELEMENT_SET_NO":999,"REV_AT_EPOCH":36384,"BSTAR":0.000154342,"MEAN_MOTION_DOT":8.002e-5,"MEAN_MOTION_DDOT":0},{"OBJECT_NAME":"SL-3 R/B","OBJECT_ID":"1983-075B","EPOCH":"2026-04-16T23:40:32.966688","MEAN_MOTION":15.39303078,"ECCENTRICITY":0.0023253,"INCLINATION":97.6127,"RA_OF_ASC_NODE":113.0416,"ARG_OF_PERICENTER":92.9383,"MEAN_ANOMALY":267.4524,"EPHEMERIS_TYPE":0,"CLASSIFICATION_TYPE":"U","NORAD_CAT_ID":14208,"ELEMENT_SET_NO":999,"REV_AT_EPOCH":33604,"BSTAR":0.00017970221,"MEAN_MOTION_DOT":6.982e-5,"MEAN_MOTION_DDOT":0},{"OBJECT_NAME":"COSMOS 1536","OBJECT_ID":"1984-013A","EPOCH":"2026-04-16T14:28:02.997408","MEAN_MOTION":15.24345804,"ECCENTRICITY":0.0015489,"INCLINATION":82.5435,"RA_OF_ASC_NODE":70.1378,"ARG_OF_PERICENTER":142.5523,"MEAN_ANOMALY":217.6796,"EPHEMERIS_TYPE":0,"CLASSIFICATION_TYPE":"U","NORAD_CAT_ID":14699,"ELEMENT_SET_NO":999,"REV_AT_EPOCH":27839,"BSTAR":0.00015408449,"MEAN_MOTION_DOT":3.815e-5,"MEAN_MOTION_DDOT":0},{"OBJECT_NAME":"SL-14 R/B","OBJECT_ID":"1984-027B","EPOCH":"2026-04-16T17:43:09.038784","MEAN_MOTION":14.86016501,"ECCENTRICITY":0.00173776,"INCLINATION":82.5441,"RA_OF_ASC_NODE":209.3318,"ARG_OF_PERICENTER":202.9423,"MEAN_ANOMALY":157.1019,"EPHEMERIS_TYPE":0,"CLASSIFICATION_TYPE":"U","NORAD_CAT_ID":14820,"ELEMENT_SET_NO":999,"REV_AT_EPOCH":25328,"BSTAR":2.8293222e-5,"MEAN_MOTION_DOT":2.72e-6,"MEAN_MOTION_DDOT":0},{"OBJECT_NAME":"SL-8 R/B","OBJECT_ID":"1985-006B","EPOCH":"2026-04-16T15:46:23.224800","MEAN_MOTION":14.37808107,"ECCENTRICITY":0.00172204,"INCLINATION":74.0463,"RA_OF_ASC_NODE":191.2857,"ARG_OF_PERICENTER":96.7509,"MEAN_ANOMALY":11.8045,"EPHEMERIS_TYPE":0,"CLASSIFICATION_TYPE":"U","NORAD_CAT_ID":15483,"ELEMENT_SET_NO":999,"REV_AT_EPOCH":15948,"BSTAR":5.088713e-5,"MEAN_MOTION_DOT":1.27e-6,"MEAN_MOTION_DDOT":0},{"OBJECT_NAME":"SL-12 R/B(2)","OBJECT_ID":"1985-042D","EPOCH":"2026-04-16T11:47:43.937664","MEAN_MOTION":14.21993166,"ECCENTRICITY":0.00331334,"INCLINATION":71.1105,"RA_OF_ASC_NODE":7.8648,"ARG_OF_PERICENTER":65.4156,"MEAN_ANOMALY":107.1999,"EPHEMERIS_TYPE":0,"CLASSIFICATION_TYPE":"U","NORAD_CAT_ID":15772,"ELEMENT_SET_NO":999,"REV_AT_EPOCH":11976,"BSTAR":4.3351995e-5,"MEAN_MOTION_DOT":4.9e-7,"MEAN_MOTION_DDOT":0},{"OBJECT_NAME":"SL-14 R/B","OBJECT_ID":"1985-069B","EPOCH":"2026-04-16T15:27:32.571072","MEAN_MOTION":14.86471675,"ECCENTRICITY":0.00202561,"INCLINATION":82.5289,"RA_OF_ASC_NODE":349.2537,"ARG_OF_PERICENTER":68.4382,"MEAN_ANOMALY":291.8991,"EPHEMERIS_TYPE":0,"CLASSIFICATION_TYPE":"U","NORAD_CAT_ID":15945,"ELEMENT_SET_NO":999,"REV_AT_EPOCH":17847,"BSTAR":2.6761399e-5,"MEAN_MOTION_DOT":2.62e-6,"MEAN_MOTION_DDOT":0},{"OBJECT_NAME":"SL-16 R/B","OBJECT_ID":"1985-097B","EPOCH":"2026-04-16T15:28:42.864384","MEAN_MOTION":14.16606259,"ECCENTRICITY":0.00085523,"INCLINATION":71.0032,"RA_OF_ASC_NODE":60.6425,"ARG_OF_PERICENTER":213.3013,"MEAN_ANOMALY":319.1399,"EPHEMERIS_TYPE":0,"CLASSIFICATION_TYPE":"U","NORAD_CAT_ID":16182,"ELEMENT_SET_NO":999,"REV_AT_EPOCH":9260,"BSTAR":0.00010658666,"MEAN_MOTION_DOT":1.65e-6,"MEAN_MOTION_DDOT":0}]
